{
  "type": "FeatureCollection",
  "features": [
    {
      "type": "Feature",
      "properties": {
        "norad_id": 36744,
        "name": "COMS 1",
        "group": "weather",
        "lat": -3.269910930341422,
        "lon": -54.13790437738069,
        "alt_km": 35783.45708927051,
        "timestamp": "2025-12-26T05:31:12.141751+00:00",
        "meta_object_name": "COMS 1",
        "meta_object_id": "2010-032A",
        "meta_epoch": "2025-12-25T12:42:15.782976",
        "meta_mean_motion": 1.00270082,
        "meta_eccentricity": 8.877e-05,
        "meta_inclination": 4.3689,
        "meta_ra_of_asc_node": 77.8525,
        "meta_arg_of_pericenter": 213.8569,
        "meta_mean_anomaly": 121.3153,
        "meta_ephemeris_type": 0,
        "meta_classification_type": "U",
        "meta_norad_cat_id": 36744,
        "meta_element_set_no": 999,
        "meta_rev_at_epoch": 4934,
        "meta_bstar": 0,
        "meta_mean_motion_dot": -3.24e-06,
        "meta_mean_motion_ddot": 0,
        "tle_line1": "1 36744U 10032A   25359.52934934 -.00000324  00000+0  00000+0 0  9991",
        "tle_line2": "2 36744   4.3689  77.8525 0000887 213.8569 121.3153  1.00270082 49343"
      },
      "geometry": {
        "type": "Point",
        "coordinates": [
          -54.13790437738069,
          -3.269910930341422
        ]
      }
    },
    {
      "type": "Feature",
      "properties": {
        "norad_id": 37214,
        "name": "FENGYUN 3B",
        "group": "weather",
        "lat": -53.31282211172168,
        "lon": 52.565815900158036,
        "alt_km": 834.8500355031902,
        "timestamp": "2025-12-26T05:31:12.141764+00:00",
        "meta_object_name": "FENGYUN 3B",
        "meta_object_id": "2010-059A",
        "meta_epoch": "2025-12-25T23:32:26.157120",
        "meta_mean_motion": 14.14794003,
        "meta_eccentricity": 0.00214749,
        "meta_inclination": 98.9886,
        "meta_ra_of_asc_node": 40.0491,
        "meta_arg_of_pericenter": 319.6521,
        "meta_mean_anomaly": 157.9509,
        "meta_ephemeris_type": 0,
        "meta_classification_type": "U",
        "meta_norad_cat_id": 37214,
        "meta_element_set_no": 999,
        "meta_rev_at_epoch": 78293,
        "meta_bstar": 0.00016293176,
        "meta_mean_motion_dot": 2.69e-06,
        "meta_mean_motion_ddot": 0,
        "tle_line1": "1 37214U 10059A   25359.98085830  .00000269  00000+0  16293-3 0  9997",
        "tle_line2": "2 37214  98.9886  40.0491 0021474 319.6521 157.9509 14.14794003782938"
      },
      "geometry": {
        "type": "Point",
        "coordinates": [
          52.565815900158036,
          -53.31282211172168
        ]
      }
    },
    {
      "type": "Feature",
      "properties": {
        "norad_id": 37849,
        "name": "SUOMI NPP",
        "group": "weather",
        "lat": 15.219874790544736,
        "lon": -64.95893187029674,
        "alt_km": 827.3245607807721,
        "timestamp": "2025-12-26T05:31:12.141775+00:00",
        "meta_object_name": "SUOMI NPP",
        "meta_object_id": "2011-061A",
        "meta_epoch": "2025-12-22T15:10:21.732672",
        "meta_mean_motion": 14.19516903,
        "meta_eccentricity": 0.00024883,
        "meta_inclination": 98.7787,
        "meta_ra_of_asc_node": 293.8852,
        "meta_arg_of_pericenter": 103.0781,
        "meta_mean_anomaly": 257.0673,
        "meta_ephemeris_type": 0,
        "meta_classification_type": "U",
        "meta_norad_cat_id": 37849,
        "meta_element_set_no": 999,
        "meta_rev_at_epoch": 73339,
        "meta_bstar": 6.3406935e-05,
        "meta_mean_motion_dot": 8.9e-07,
        "meta_mean_motion_ddot": 0,
        "tle_line1": "1 37849U 11061A   25356.63219598  .00000089  00000+0  63407-4 0  9994",
        "tle_line2": "2 37849  98.7787 293.8852 0002488 103.0781 257.0673 14.19516903733392"
      },
      "geometry": {
        "type": "Point",
        "coordinates": [
          -64.95893187029674,
          15.219874790544736
        ]
      }
    },
    {
      "type": "Feature",
      "properties": {
        "norad_id": 38552,
        "name": "METEOSAT-10 (MSG-3)",
        "group": "weather",
        "lat": 3.82230670642508,
        "lon": 178.09623220721852,
        "alt_km": 35792.34132042028,
        "timestamp": "2025-12-26T05:31:12.141788+00:00",
        "meta_object_name": "METEOSAT-10 (MSG-3)",
        "meta_object_id": "2012-035B",
        "meta_epoch": "2025-12-25T19:55:02.808768",
        "meta_mean_motion": 1.00266624,
        "meta_eccentricity": 0.00014788,
        "meta_inclination": 4.2575,
        "meta_ra_of_asc_node": 61.6862,
        "meta_arg_of_pericenter": 265.335,
        "meta_mean_anomaly": 66.5982,
        "meta_ephemeris_type": 0,
        "meta_classification_type": "U",
        "meta_norad_cat_id": 38552,
        "meta_element_set_no": 999,
        "meta_rev_at_epoch": 4911,
        "meta_bstar": 0,
        "meta_mean_motion_dot": 1.4e-07,
        "meta_mean_motion_ddot": 0,
        "tle_line1": "1 38552U 12035B   25359.82989362  .00000014  00000+0  00000+0 0  9998",
        "tle_line2": "2 38552   4.2575  61.6862 0001478 265.3350  66.5982  1.00266624 49119"
      },
      "geometry": {
        "type": "Point",
        "coordinates": [
          178.09623220721852,
          3.82230670642508
        ]
      }
    },
    {
      "type": "Feature",
      "properties": {
        "norad_id": 38771,
        "name": "METOP-B",
        "group": "weather",
        "lat": -39.98934500787538,
        "lon": 57.319017638211605,
        "alt_km": 829.2051062721812,
        "timestamp": "2025-12-26T05:31:12.141799+00:00",
        "meta_object_name": "METOP-B",
        "meta_object_id": "2012-049A",
        "meta_epoch": "2025-12-25T21:15:48.409344",
        "meta_mean_motion": 14.21413207,
        "meta_eccentricity": 0.0003282,
        "meta_inclination": 98.6781,
        "meta_ra_of_asc_node": 49.6208,
        "meta_arg_of_pericenter": 116.7785,
        "meta_mean_anomaly": 243.3728,
        "meta_ephemeris_type": 0,
        "meta_classification_type": "U",
        "meta_norad_cat_id": 38771,
        "meta_element_set_no": 999,
        "meta_rev_at_epoch": 68864,
        "meta_bstar": 7.8569223e-05,
        "meta_mean_motion_dot": 1.28e-06,
        "meta_mean_motion_ddot": 0,
        "tle_line1": "1 38771U 12049A   25359.88597696  .00000128  00000+0  78569-4 0  9993",
        "tle_line2": "2 38771  98.6781  49.6208 0003282 116.7785 243.3728 14.21413207688642"
      },
      "geometry": {
        "type": "Point",
        "coordinates": [
          57.319017638211605,
          -39.98934500787538
        ]
      }
    },
    {
      "type": "Feature",
      "properties": {
        "norad_id": 39216,
        "name": "INSAT-3D",
        "group": "weather",
        "lat": -1.0160241492812734,
        "lon": -52.66552175782431,
        "alt_km": 35782.324737086616,
        "timestamp": "2025-12-26T05:31:12.141811+00:00",
        "meta_object_name": "INSAT-3D",
        "meta_object_id": "2013-038B",
        "meta_epoch": "2025-12-25T13:20:09.572640",
        "meta_mean_motion": 1.00273996,
        "meta_eccentricity": 0.00019179,
        "meta_inclination": 1.4761,
        "meta_ra_of_asc_node": 84.8524,
        "meta_arg_of_pericenter": 156.8328,
        "meta_mean_anomaly": 182.2136,
        "meta_ephemeris_type": 0,
        "meta_classification_type": "U",
        "meta_norad_cat_id": 39216,
        "meta_element_set_no": 999,
        "meta_rev_at_epoch": 4533,
        "meta_bstar": 0,
        "meta_mean_motion_dot": -3.18e-06,
        "meta_mean_motion_ddot": 0,
        "tle_line1": "1 39216U 13038B   25359.55566635 -.00000318  00000+0  00000+0 0  9992",
        "tle_line2": "2 39216   1.4761  84.8524 0001917 156.8328 182.2136  1.00273996 45339"
      },
      "geometry": {
        "type": "Point",
        "coordinates": [
          -52.66552175782431,
          -1.0160241492812734
        ]
      }
    },
    {
      "type": "Feature",
      "properties": {
        "norad_id": 39260,
        "name": "FENGYUN 3C",
        "group": "weather",
        "lat": -68.92694720827839,
        "lon": 0.02440267655888625,
        "alt_km": 854.4538455875172,
        "timestamp": "2025-12-26T05:31:12.141822+00:00",
        "meta_object_name": "FENGYUN 3C",
        "meta_object_id": "2013-052A",
        "meta_epoch": "2025-12-25T23:04:09.121152",
        "meta_mean_motion": 14.15700264,
        "meta_eccentricity": 0.00150217,
        "meta_inclination": 98.4779,
        "meta_ra_of_asc_node": 336.996,
        "meta_arg_of_pericenter": 157.9781,
        "meta_mean_anomaly": 202.2043,
        "meta_ephemeris_type": 0,
        "meta_classification_type": "U",
        "meta_norad_cat_id": 39260,
        "meta_element_set_no": 999,
        "meta_rev_at_epoch": 63405,
        "meta_bstar": 7.9772217e-05,
        "meta_mean_motion_dot": 1.15e-06,
        "meta_mean_motion_ddot": 0,
        "tle_line1": "1 39260U 13052A   25359.96121668  .00000115  00000+0  79772-4 0  9996",
        "tle_line2": "2 39260  98.4779 336.9960 0015021 157.9781 202.2043 14.15700264634050"
      },
      "geometry": {
        "type": "Point",
        "coordinates": [
          0.02440267655888625,
          -68.92694720827839
        ]
      }
    }
  ]
}